{"fetched_at":"2026-03-29T16:36:15Z","count":15609,"tles":[{"name":"STARLINK-33577","line1":"1 62762U 25015E   26087.68540489  .00020565  00000+0  70473-3 0  9994","line2":"2 62762  53.1580 233.9250 0001045  72.8114 287.3001 15.30191648 67398","category":"Starlink"}]}