{
  "norad_id": 62762,
  "name": "STARLINK-33577",
  "history": [
    {
      "epoch": "2026-03-28T16:26:58.982496Z",
      "apogee_km": 475.9563905978457,
      "perigee_km": 474.5236236007413,
      "latitude_deg": -5.508631275577572e-06,
      "longitude_deg": 161.07693376618016,
      "height_km": 475.9265315453625,
      "semi_major_axis_km": 6853.377007099293,
      "eccentricity": 0.00010453,
      "inclination_deg": 53.158,
      "raan_deg": 233.925,
      "arg_perigee_deg": 72.8114,
      "mean_anomaly_deg": 287.3001,
      "mean_motion_rev_day": 15.30191648
    }
  ]
}